OBJECT_NAME,OBJECT_ID,EPOCH,MEAN_MOTION,ECCENTRICITY,INCLINATION,RA_OF_ASC_NODE,ARG_OF_PERICENTER,MEAN_ANOMALY,EPHEMERIS_TYPE,CLASSIFICATION_TYPE,NORAD_CAT_ID,ELEMENT_SET_NO,REV_AT_EPOCH,BSTAR,MEAN_MOTION_DOT,MEAN_MOTION_DDOT
OPS 6582 (TRANSIT 5B-5),1964-083D,2026-07-18T17:58:49.156320,13.57015274,.0041428,90.0760,203.2918,182.6506,351.5674,0,U,965,999,4789,.32709985E-4,.33E-6,0
LES-1,1965-008C,2026-07-18T16:05:49.861536,9.88354854,.00152592,32.1481,330.1321,23.0947,337.0234,0,U,1002,999,21930,.10957602E-2,.17E-6,0
SOLRAD 7B,1965-016D,2026-07-18T21:02:11.367744,13.94978828,.00184526,70.0779,168.8917,77.7964,282.5207,0,U,1291,999,12112,.15896967E-4,-.31E-6,0
SECOR 4 (EGRS 4),1965-027B,2026-07-18T17:56:51.063936,12.92668213,.00327156,90.2494,16.2874,116.5991,255.5717,0,U,1315,999,89100,-.24430049E-3,-.59E-6,0
SECOR 7 (EGRS 7),1966-077B,2026-07-16T04:36:45.007776,8.59615204,.00109815,90.3355,277.7833,30.0122,330.1357,0,U,2411,999,87987,.13417377E-1,.29E-6,0
ERS 15,1966-077C,2026-07-18T04:32:40.029216,8.59079529,.00068853,90.3363,277.5996,40.3168,319.8193,0,U,2412,999,39312,0,.2E-7,0
ISIS 1,1969-009A,2026-07-18T19:00:40.579776,11.30436843,.17071957,88.4452,140.9297,184.3940,174.0245,0,U,3669,999,36334,.42134181E-4,.71E-6,0
SECOR 13 (EGRS 13),1969-037B,2026-07-18T14:25:16.862304,13.42978062,.0039533,99.6441,69.7180,173.0519,215.4330,0,U,3891,999,80597,.65918E-5,-.38E-6,0
OPS 7613 (P/L 1),1969-082B,2026-07-18T06:17:33.701568,13.99203486,.00186562,70.0086,258.2580,16.8884,343.2841,0,U,4256,999,89481,.19083984E-4,-.26E-6,0
SHINSEI (MS-F2),1971-080A,2026-07-18T17:57:03.713760,12.74255019,.06401723,32.0588,326.5669,247.7742,105.3751,0,U,5485,999,55328,.88412794E-4,.76E-6,0
PROSPERO (BLACK ARROW),1971-093A,2026-07-18T06:45:14.318208,14.01696426,.05020879,82.0374,263.5360,137.8914,226.2003,0,U,5580,999,75288,.10409923E-3,.515E-5,0
OSCAR 7 (AO-7),1974-089B,2026-07-18T12:34:44.913216,12.53698622,.00126459,101.9906,213.0974,72.2029,82.3408,0,U,7530,999,36444,-.25006265E-4,-.5E-6,0
PHASE 3B (AO-10),1983-058B,2026-07-17T23:01:24.898944,2.05871393,.60006144,25.9392,214.4954,124.1231,307.7423,0,U,14129,999,29612,0,-.201E-5,0
GEOSAT,1985-021A,2026-07-18T19:51:04.404384,14.39979864,.00018933,108.0408,147.2867,294.6308,65.4637,0,U,15595,999,16732,.4276598E-4,-.1E-7,0
EUTELSAT 1-F4 (ECS 4),1987-078B,2026-07-17T17:20:47.649408,0.98690699,.00098307,13.8067,341.9095,47.0360,303.9962,0,U,18351,999,12705,0,-.258E-5,0
PACSAT (AO-16),1990-005D,2026-07-18T21:00:42.235776,14.33945453,.00114192,98.8510,236.2961,134.7612,44.5408,0,U,20439,999,90647,.29342385E-4,.35E-6,0
LUSAT (LO-19),1990-005G,2026-07-18T20:33:53.054784,14.34131325,.00126222,98.8846,222.5341,111.5754,248.6776,0,U,20442,999,90693,.24421256E-4,.22E-6,0
COSMOS 2197,1992-042A,2026-07-18T18:00:45.150048,12.64252855,.00122521,82.5918,208.7658,196.7921,337.9758,0,U,22034,999,56927,.1202692E-5,.11E-6,0
