{"_default": { "40": {"norad_id": "7530", "name": "OSCAR-7", "tle1": "1 07530U 74089B   26199.52413094 -.00000050  00000-0 -25006-4 0  9992", "tle2": "2 07530 101.9906 213.0974 0012646  72.2029  82.3408 12.53698622364440", "object_type": "PAYLOAD", "criticality_score": 7.0, "last_updated": "2026-07-19T02:53:59.007202+00:00", "maneuver_count": 0, "owner": "US"}, "101": {"norad_id": "20442", "name": "OSCAR 19 (LUSAT)", "tle1": "1 20442U 90005G   26199.85686405  .00000022  00000-0  24421-4 0  9996", "tle2": "2 20442  98.8846 222.5341 0012622 111.5754 248.6776 14.34131325906937", "object_type": "PAYLOAD", "criticality_score": 7.0, "last_updated": "2026-07-19T02:53:59.007202+00:00", "maneuver_count": 0, "owner": "ARGN"}, "129": {"norad_id": "965", "name": "OPS 6582 (TRANSIT 5B-5)", "tle1": "1   965U 64083D   26199.74918005  .00000033  00000-0  32710-4 0  9995", "tle2": "2   965  90.0760 203.2918 0041428 182.6506 351.5674 13.57015274 47890", "object_type": "PAYLOAD", "criticality_score": 7.0, "last_updated": "2026-07-19T02:53:59.007202+00:00", "maneuver_count": 0, "owner": "US"}, "153": {"norad_id": "14129", "name": "OSCAR 10", "tle1": "1 14129U 83058B   26198.95931596 -.00000201  00000-0  00000-0 0  9998", "tle2": "2 14129  25.9392 214.4954 6000614 124.1231 307.7423  2.05871393296123", "object_type": "PAYLOAD", "criticality_score": 7.0, "last_updated": "2026-07-19T02:53:59.007202+00:00", "maneuver_count": 0, "owner": "GER"}, "169": {"norad_id": "1002", "name": "LES 1", "tle1": "1  1002U 65008C   26199.67071598  .00000017  00000-0  10958-2 0  9995", "tle2": "2  1002  32.1481 330.1321 0015259  23.0947 337.0234  9.88354854219305", "object_type": "PAYLOAD", "criticality_score": 7.0, "last_updated": "2026-07-19T02:53:59.007202+00:00", "maneuver_count": 0, "owner": "US"}, "170": {"norad_id": "1291", "name": "SOLRAD 7B", "tle1": "1  1291U 65016D   26199.87652045 -.00000031  00000-0  15897-4 0  9994", "tle2": "2  1291  70.0779 168.8917 0018453  77.7964 282.5207 13.94978828121128", "object_type": "PAYLOAD", "criticality_score": 7.0, "last_updated": "2026-07-19T02:53:59.007202+00:00", "maneuver_count": 0, "owner": "US"}, "173": {"norad_id": "2412", "name": "ERS 15", "tle1": "1 02412U 66077C   26199.18935219  .00000002  00000-0  00000-0 0  9992", "tle2": "2 02412  90.3363 277.5996 0006885  40.3168 319.8193  8.59079529393125", "object_type": "PAYLOAD", "criticality_score": 7.0, "last_updated": "2026-07-19T02:53:59.007202+00:00", "maneuver_count": 0, "owner": "US"}, "174": {"norad_id": "3669", "name": "ISIS 1", "tle1": "1  3669U 69009A   26199.79213633  .00000071  00000-0  42134-4 0  9995", "tle2": "2  3669  88.4452 140.9297 1707196 184.3940 174.0245 11.30436843363344", "object_type": "PAYLOAD", "criticality_score": 7.0, "last_updated": "2026-07-19T02:53:59.007202+00:00", "maneuver_count": 0, "owner": "CA"}, "176": {"norad_id": "4256", "name": "OPS 7613 (P/L 1)", "tle1": "1 04256U 69082B   26199.26219562 -.00000026  00000-0  19084-4 0  9997", "tle2": "2 04256  70.0086 258.2580 0018656  16.8884 343.2841 13.99203486894811", "object_type": "PAYLOAD", "criticality_score": 7.0, "last_updated": "2026-07-19T02:53:59.007202+00:00", "maneuver_count": 0, "owner": "US"}, "177": {"norad_id": "5485", "name": "SHINSEI (MS-F2)", "tle1": "1  5485U 71080A   26199.74795964  .00000076  00000-0  88413-4 0  9997", "tle2": "2  5485  32.0588 326.5669 0640172 247.7742 105.3751 12.74255019553281", "object_type": "PAYLOAD", "criticality_score": 7.0, "last_updated": "2026-07-19T02:53:59.007202+00:00", "maneuver_count": 0, "owner": "JPN"}, "179": {"norad_id": "18351", "name": "EUTE 1-F4 (ECS 4)", "tle1": "1 18351U 87078B   26198.72277372 -.00000258  00000-0  00000-0 0  9997", "tle2": "2 18351  13.8067 341.9095 0009831  47.0360 303.9962  0.98690699127050", "object_type": "PAYLOAD", "criticality_score": 7.0, "last_updated": "2026-07-19T02:53:59.007202+00:00", "maneuver_count": 0, "owner": "EUTE"}, "202": {"norad_id": "5580", "name": "PROSPERO (BLACK ARROW)", "tle1": "1 05580U 71093A   26199.28141572  .00000515  00000-0  10410-3 0  9995", "tle2": "2 05580  82.0374 263.5360 0502088 137.8914 226.2003 14.01696426752889", "object_type": "PAYLOAD", "criticality_score": 7.0, "last_updated": "2026-07-19T02:53:59.007202+00:00", "maneuver_count": 0, "owner": "UK"}, "204": {"norad_id": "1315", "name": "SECOR 4 (EGRS 4)", "tle1": "1  1315U 65027B   26199.74781323 -.00000059  00000-0 -24430-3 0  9994", "tle2": "2  1315  90.2494  16.2874 0032716 116.5991 255.5717 12.92668213891009", "object_type": "PAYLOAD", "criticality_score": 7.0, "last_updated": "2026-07-19T02:53:59.007202+00:00", "maneuver_count": 0, "owner": "US"}, "230": {"norad_id": "15595", "name": "GEOSAT", "tle1": "1 15595U 85021A   26199.82713431 -.00000001  00000-0  42766-4 0  9998", "tle2": "2 15595 108.0408 147.2867 0001893 294.6308  65.4637 14.39979864167326", "object_type": "PAYLOAD", "criticality_score": 7.0, "last_updated": "2026-07-19T02:53:59.007202+00:00", "maneuver_count": 0, "owner": "US"}, "323": {"norad_id": "2411", "name": "SECOR 7 (EGRS 7)", "tle1": "1 02411U 66077B   26197.19218759  .00000029  00000-0  13417-1 0  9999", "tle2": "2 02411  90.3355 277.7833 0010982  30.0122 330.1357  8.59615204879871", "object_type": "PAYLOAD", "criticality_score": 7.0, "last_updated": "2026-07-19T02:53:59.007202+00:00", "maneuver_count": 0, "owner": "US"}, "324": {"norad_id": "3891", "name": "SECOR 13 (EGRS 13)", "tle1": "1  3891U 69037B   26199.60088961 -.00000038  00000-0  65918-5 0  9997", "tle2": "2  3891  99.6441  69.7180 0039533 173.0519 215.4330 13.42978062805975", "object_type": "PAYLOAD", "criticality_score": 7.0, "last_updated": "2026-07-19T02:53:59.007202+00:00", "maneuver_count": 0, "owner": "US"}, "340": {"norad_id": "20439", "name": "OSCAR 16 (PACSAT)", "tle1": "1 20439U 90005D   26199.87548883  .00000035  00000-0  29342-4 0  9992", "tle2": "2 20439  98.8510 236.2961 0011419 134.7612  44.5408 14.33945453906472", "object_type": "PAYLOAD", "criticality_score": 7.0, "last_updated": "2026-07-19T02:53:59.007202+00:00", "maneuver_count": 0, "owner": "US"}, "591": {"norad_id": "22034", "name": "COSMOS 2197", "tle1": "1 22034U 92042A   26199.75052257  .00000011  00000-0  12027-5 0  9997", "tle2": "2 22034  82.5918 208.7658 0012252 196.7921 337.9758 12.64252855569270", "object_type": "PAYLOAD", "criticality_score": 7.0, "last_updated": "2026-07-19T02:53:59.007202+00:00", "maneuver_count": 0, "owner": "CIS"}}}